NORAD_CAT_ID,OBJECT_NAME,OBJECT_TYPE,EPOCH,MEAN_MOTION,ECCENTRICITY,INCLINATION,RA_OF_ASC_NODE,ARG_OF_PERICENTER,MEAN_ANOMALY,BSTAR,MEAN_MOTION_DOT,MEAN_MOTION_DDOT,TLE_LINE0,TLE_LINE1,TLE_LINE2,SEMIMAJOR_AXIS,PERIOD,APOGEE,PERIGEE,DECAYED
49167.0,STARLINK-3054,PAYLOAD,2024-05-20 11:27:22,14.98330637,0.0003262,69.9995,154.0377,269.7515,90.327,0.0002589,2.998e-05,0.0,0 STARLINK-3054,1 49167U 21082AP  24141.47734209  .00002998  00000-0  25890-3 0  9993,2 49167  69.9995 154.0377 0003262 269.7515  90.3270 14.98330637148582,6950.191,96.107,574.323,569.789,0.0
49167.0,STARLINK-3054,PAYLOAD,2024-05-21 05:04:52,14.9831117,0.0003111,69.9995,152.1861,264.166,95.9145,0.00065058,7.674e-05,0.0,0 STARLINK-3054,1 49167U 21082AP  24142.21171359  .00007674  00000-0  65058-3 0  9993,2 49167  69.9995 152.1861 0003111 264.1660  95.9145 14.98311170148709,6950.251,96.108,574.278,569.954,0.0
49167.0,STARLINK-3054,PAYLOAD,2024-05-21 09:53:16,14.98322406,0.0003222,69.9986,151.6814,267.1814,92.8977,2.605e-05,2.18e-06,0.0,0 STARLINK-3054,1 49167U 21082AP  24142.41199122  .00000218  00000-0  26050-4 0  9990,2 49167  69.9986 151.6814 0003222 267.1814  92.8977 14.98322406148723,6950.216,96.107,574.321,569.842,0.0
49167.0,STARLINK-3054,PAYLOAD,2024-05-21 21:06:12,14.98326548,0.0003298,69.9985,150.503,268.5361,91.542,7.1888e-05,7.65e-06,0.0,0 STARLINK-3054,1 49167U 21082AP  24142.87930882  .00000765  00000-0  71888-4 0  9992,2 49167  69.9985 150.5030 0003298 268.5361  91.5420 14.98326548148804,6950.204,96.107,574.361,569.776,0.0
49167.0,STARLINK-3054,PAYLOAD,2024-05-22 09:55:16,14.98329284,0.0003338,69.9984,149.156,269.0745,91.0031,6.9728e-05,7.39e-06,0.0,0 STARLINK-3054,1 49167U 21082AP  24143.41338777  .00000739  00000-0  69728-4 0  9999,2 49167  69.9984 149.1560 0003338 269.0745  91.0031 14.98329284148872,6950.195,96.107,574.38,569.74,0.0
49167.0,STARLINK-3054,PAYLOAD,2024-05-23 05:08:53,14.98330415,0.000341,69.9983,147.1363,269.4229,90.654,0.00018567,2.123e-05,0.0,0 STARLINK-3054,1 49167U 21082AP  24144.21450549  .00002123  00000-0  18567-3 0  9993,2 49167  69.9983 147.1363 0003410 269.4229  90.6540 14.98330415149006,6950.192,96.107,574.427,569.687,0.0
49167.0,STARLINK-3054,PAYLOAD,2024-05-23 09:57:17,14.98332985,0.0003381,69.9983,146.6313,268.9793,91.0979,0.00021675,2.494e-05,0.0,0 STARLINK-3054,1 49167U 21082AP  24144.41478402  .00002494  00000-0  21675-3 0  9998,2 49167  69.9983 146.6313 0003381 268.9793  91.0979 14.98332985149029,6950.184,96.107,574.399,569.699,0.0
49167.0,STARLINK-3054,PAYLOAD,2024-05-24 05:10:53,14.98336728,0.0003343,69.9984,144.6114,268.7099,91.3677,0.00016411,1.866e-05,0.0,0 STARLINK-3054,1 49167U 21082AP  24145.21590122  .00001866  00000-0  16411-3 0  9995,2 49167  69.9984 144.6114 0003343 268.7099  91.3677 14.98336728149153,6950.172,96.107,574.361,569.714,0.0
49167.0,STARLINK-3054,PAYLOAD,2024-05-24 09:59:17,14.98338969,0.0003343,69.9984,144.1063,268.6573,91.4203,0.00017603,2.008e-05,0.0,0 STARLINK-3054,1 49167U 21082AP  24145.41617900  .00002008  00000-0  17603-3 0  9994,2 49167  69.9984 144.1063 0003343 268.6573  91.4203 14.98338969149174,6950.165,96.106,574.354,569.707,0.0
49167.0,STARLINK-3054,PAYLOAD,2024-05-24 22:48:22,14.983329,0.0003118,69.999,142.7608,266.0148,94.0654,4.3279e-05,4.23e-06,0.0,0 STARLINK-3054,1 49167U 21082AP  24145.95026351  .00000423  00000-0  43279-4 0  9995,2 49167  69.9990 142.7608 0003118 266.0148  94.0654 14.98332900149257,6950.184,96.107,574.216,569.882,0.0
49167.0,STARLINK-3054,PAYLOAD,2024-05-25 03:36:47,14.98330589,0.0003121,69.9989,142.2551,267.3041,92.7761,5.4303e-07,-8.7e-07,0.0,0 STARLINK-3054,1 49167U 21082AP  24146.15054481 -.00000087  00000-0  54303-6 0  9992,2 49167  69.9989 142.2551 0003121 267.3041  92.7761 14.98330589149296,6950.191,96.107,574.225,569.887,0.0
49167.0,STARLINK-3054,PAYLOAD,2024-05-25 10:01:19,14.98329302,0.0003135,69.9987,141.5817,267.5015,92.5785,-2.6737e-05,-4.12e-06,0.0,0 STARLINK-3054,1 49167U 21082AP  24146.41758552 -.00000412  00000-0 -26737-4 0  9992,2 49167  69.9987 141.5817 0003135 267.5015  92.5785 14.98329302149328,6950.195,96.107,574.239,569.881,0.0
49167.0,STARLINK-3054,PAYLOAD,2024-05-26 03:38:47,14.98332985,0.0003293,69.998,139.7294,268.1179,91.9603,1.5036e-05,8.6e-07,0.0,0 STARLINK-3054,1 49167U 21082AP  24147.15194100  .00000086  00000-0  15036-4 0  9992,2 49167  69.9980 139.7294 0003293 268.1179  91.9603 14.98332985149448,6950.184,96.107,574.337,569.76,0.0
49167.0,STARLINK-3054,PAYLOAD,2024-05-26 08:27:10,14.98376192,0.0002328,69.9992,139.2262,253.6468,106.4435,-0.00079563,-9.584e-05,0.0,0 STARLINK-3054,1 49167U 21082AP  24147.35221019 -.00009584  00000-0 -79563-3 0  9992,2 49167  69.9992 139.2262 0002328 253.6468 106.4435 14.98376192149475,6950.05,96.104,573.533,570.297,0.0
49167.0,STARLINK-3054,PAYLOAD,2024-05-26 16:27:52,14.98333288,0.0003063,69.9988,138.384,263.8098,96.2712,-5.8696e-06,-1.63e-06,0.0,0 STARLINK-3054,1 49167U 21082AP  24147.68602032 -.00000163  00000-0 -58696-5 0  9996,2 49167  69.9988 138.3840 0003063 263.8098  96.2712 14.98333288149520,6950.183,96.107,574.177,569.919,0.0
49167.0,STARLINK-3054,PAYLOAD,2024-05-26 22:52:23,14.98357689,0.0002867,69.9995,137.7118,269.2458,90.8373,-0.00016378,-2.048e-05,0.0,0 STARLINK-3054,1 49167U 21082AP  24147.95305177 -.00002048  00000-0 -16378-3 0  9999,2 49167  69.9995 137.7118 0002867 269.2458  90.8373 14.98357689149557,6950.107,96.105,573.965,569.98,0.0
49167.0,STARLINK-3054,PAYLOAD,2024-05-27 13:17:36,14.98331693,0.0003231,69.9981,136.1947,269.3479,90.731,0.00010011,1.102e-05,0.0,0 STARLINK-3054,1 49167U 21082AP  24148.55389854  .00001102  00000-0  10011-3 0  9996,2 49167  69.9981 136.1947 0003231 269.3479  90.7310 14.98331693149642,6950.188,96.107,574.298,569.807,0.0
49167.0,STARLINK-3054,PAYLOAD,2024-05-27 19:42:09,14.98328521,0.0003213,69.9981,135.5216,269.2217,90.8574,3.7857e-05,3.59e-06,0.0,0 STARLINK-3054,1 49167U 21082AP  24148.82094208  .00000359  00000-0  37857-4 0  9993,2 49167  69.9981 135.5216 0003213 269.2217  90.8574 14.98328521149697,6950.197,96.107,574.296,569.829,0.0
49167.0,STARLINK-3054,PAYLOAD,2024-05-27 22:54:25,14.98328701,0.000321,69.9981,135.185,269.4753,90.6038,1.3284e-05,6.5e-07,0.0,0 STARLINK-3054,1 49167U 21082AP  24148.95446258  .00000065  00000-0  13284-4 0  9995,2 49167  69.9981 135.1850 0003210 269.4753  90.6038 14.98328701149706,6950.197,96.107,574.293,569.831,0.0
49167.0,STARLINK-3054,PAYLOAD,2024-05-28 13:19:37,14.98332163,0.0003197,69.9981,133.67,268.8212,91.2581,3.9456e-05,3.78e-06,0.0,0 STARLINK-3054,1 49167U 21082AP  24149.55529904  .00000378  00000-0  39456-4 0  9998,2 49167  69.9981 133.6700 0003197 268.8212  91.2581 14.98332163149796,6950.186,96.107,574.273,569.829,0.0
49167.0,STARLINK-3054,PAYLOAD,2024-05-28 19:44:10,14.98329659,0.0003193,69.9981,132.9967,268.7124,91.367,2.15e-05,1.63e-06,0.0,0 STARLINK-3054,1 49167U 21082AP  24149.82234092  .00000163  00000-0  21500-4 0  9992,2 49167  69.9981 132.9967 0003193 268.7124  91.3670 14.98329659149842,6950.194,96.107,574.278,569.84,0.0
49167.0,STARLINK-3054,PAYLOAD,2024-05-28 22:56:26,14.98330037,0.0003191,69.9981,132.66,268.7708,91.3086,1.5454e-05,9.1e-07,0.0,0 STARLINK-3054,1 49167U 21082AP  24149.95586077  .00000091  00000-0  15454-4 0  9990,2 49167  69.9981 132.6600 0003191 268.7708  91.3086 14.98330037149853,6950.193,96.107,574.276,569.84,0.0
49167.0,STARLINK-3054,PAYLOAD,2024-05-29 13:21:38,14.98333456,0.0003185,69.9982,131.145,268.8705,91.2089,5.1894e-05,5.26e-06,0.0,0 STARLINK-3054,1 49167U 21082AP  24150.55669716  .00000526  00000-0  51894-4 0  9991,2 49167  69.9982 131.1450 0003185 268.8705  91.2089 14.98333456149942,6950.182,96.107,574.261,569.834,0.0
49167.0,STARLINK-3054,PAYLOAD,2024-05-29 19:46:10,14.98332583,0.0003162,69.9982,130.4718,269.1197,90.96,2.9282e-05,2.56e-06,0.0,0 STARLINK-3054,1 49167U 21082AP  24150.82373833  .00000256  00000-0  29282-4 0  9999,2 49167  69.9982 130.4718 0003162 269.1197  90.9600 14.98332583149995,6950.185,96.107,574.248,569.852,0.0
49167.0,STARLINK-3054,PAYLOAD,2024-05-29 21:22:19,14.98331695,0.000316,69.9982,130.3035,269.0949,90.9848,3.2989e-05,3.01e-06,0.0,0 STARLINK-3054,1 49167U 21082AP  24150.89049875  .00000301  00000-0  32989-4 0  9991,2 49167  69.9982 130.3035 0003160 269.0949  90.9848 14.98331695149995,6950.188,96.107,574.249,569.856,0.0
49167.0,STARLINK-3054,PAYLOAD,2024-05-30 13:23:39,14.98334325,0.000315,69.9983,128.6199,268.5031,91.5767,6.7966e-05,7.18e-06,0.0,0 STARLINK-3054,1 49167U 21082AP  24151.55809556  .00000718  00000-0  67966-4 0  9990,2 49167  69.9983 128.6199 0003150 268.5031  91.5767 14.98334325150095,6950.18,96.107,574.234,569.855,0.0
49167.0,STARLINK-3054,PAYLOAD,2024-05-30 21:24:19,14.98332371,0.000312,69.9983,127.7784,268.5924,91.4878,3.7711e-05,3.57e-06,0.0,0 STARLINK-3054,1 49167U 21082AP  24151.89189704  .00000357  00000-0  37711-4 0  9997,2 49167  69.9983 127.7784 0003120 268.5924  91.4878 14.98332371150151,6950.186,96.107,574.219,569.882,0.0
49167.0,STARLINK-3054,PAYLOAD,2024-05-30 23:00:27,14.9833333,0.0003112,69.9983,127.61,268.6799,91.4004,5.6076e-05,5.76e-06,0.0,0 STARLINK-3054,1 49167U 21082AP  24151.95865589  .00000576  00000-0  56076-4 0  9994,2 49167  69.9983 127.6100 0003112 268.6799  91.4004 14.98333330150151,6950.183,96.107,574.21,569.885,0.0
49167.0,STARLINK-3054,PAYLOAD,2024-05-31 11:49:30,14.9835594,0.0003082,69.9984,126.2633,269.7308,90.3498,0.00028705,3.336e-05,0.0,0 STARLINK-3054,1 49167U 21082AP  24152.49271371  .00003336  00000-0  28705-3 0  9998,2 49167  69.9984 126.2633 0003082 269.7308  90.3498 14.98355940150248,6950.113,96.105,574.12,569.836,0.0
49167.0,STARLINK-3054,PAYLOAD,2024-05-31 13:25:37,14.98361664,0.0003085,69.9983,126.095,267.2159,92.8647,0.00034066,3.977e-05,0.0,0 STARLINK-3054,1 49167U 21082AP  24152.55946735  .00003977  00000-0  34066-3 0  9996,2 49167  69.9983 126.0950 0003085 267.2159  92.8647 14.98361664150240,6950.095,96.105,574.104,569.816,0.0
